[{"OBJECT_NAME":"YAOGAN-35 05C","OBJECT_ID":"2022-109D","EPOCH":"2026-03-09T23:24:49.254048","MEAN_MOTION":15.2196891,"ECCENTRICITY":0.00028309,"INCLINATION":34.9905,"RA_OF_ASC_NODE":260.7893,"ARG_OF_PERICENTER":75.4847,"MEAN_ANOMALY":284.6181,"EPHEMERIS_TYPE":0,"CLASSIFICATION_TYPE":"U","NORAD_CAT_ID":53763,"ELEMENT_SET_NO":999,"REV_AT_EPOCH":19524,"BSTAR":0.00045958493,"MEAN_MOTION_DOT":0.00010718,"MEAN_MOTION_DDOT":0},{"OBJECT_NAME":"KUIPER-00155","OBJECT_ID":"2025-217N","EPOCH":"2026-03-09T06:30:32.856768","MEAN_MOTION":15.23116677,"ECCENTRICITY":0.00054059,"INCLINATION":51.8785,"RA_OF_ASC_NODE":13.4958,"ARG_OF_PERICENTER":320.4858,"MEAN_ANOMALY":39.5728,"EPHEMERIS_TYPE":0,"CLASSIFICATION_TYPE":"U","NORAD_CAT_ID":65774,"ELEMENT_SET_NO":999,"REV_AT_EPOCH":2525,"BSTAR":0.00081110335,"MEAN_MOTION_DOT":0.00019122,"MEAN_MOTION_DDOT":0}]
